BEIDOU-3 M13            
1 43622U 18072A   25321.43846366 -.00000065  00000+0  00000+0 0  9998
2 43622  56.4377  69.6580 0004987 300.1570  59.7756  1.86230957 48719
BEIDOU-3 M14            
1 43623U 18072B   25321.30393086 -.00000065  00000+0  00000+0 0  9991
2 43623  56.4393  69.6564 0002672 346.1500  13.8247  1.86230970 48702
BEIDOU-3 M16            
1 43647U 18078A   25321.99908512 -.00000083  00000+0  00000+0 0  9994
2 43647  54.2845 307.3860 0006655  17.5457 342.4699  1.86232407 48228
BEIDOU-3 M15            
1 43648U 18078B   25322.12828618 -.00000083  00000+0  00000+0 0  9999
2 43648  54.2802 307.3825 0003283  15.7604 344.2421  1.86232306 48244
BEIDOU-3 G1             
1 43683U 18085A   25322.19113597 -.00000258  00000+0  00000+0 0  9990
2 43683   2.5444 103.7485 0001986  49.2528 113.4145  1.00270252 25945
COSMOS 2529 [GLONASS-M] 
1 43687U 18086A   25322.01466882  .00000060  00000+0  00000+0 0  9994
2 43687  64.2914 199.7239 0007790 255.4236 104.5803  2.13102027 54789
BEIDOU-3 M17            
1 43706U 18093A   25321.47837796  .00000071  00000+0  00000+0 0  9991
2 43706  54.1724 189.4797 0006755 305.2379 232.9952  1.86228495 47594
BEIDOU-3 M18            
1 43707U 18093B   25321.07386476  .00000067  00000+0  00000+0 0  9997
2 43707  54.1732 189.4853 0006593 347.5069  12.5747  1.86226769 47587
NAVSTAR 77 (USA 289)    
1 43873U 18109A   25321.84895427  .00000008  00000+0  00000+0 0  9990
2 43873  55.5542 100.5293 0036928 194.0573 337.8808  2.00553069 50833
BEIDOU-3 IGSO-1         
1 44204U 19023A   25320.74817708 -.00000236  00000+0  00000+0 0  9993
2 44204  58.3970  39.8456 0026899 221.1206 180.0641  1.00252858  5085
BEIDOU-2 G8             
1 44231U 19027A   25321.97792479 -.00000230  00000+0  00000+0 0  9994
2 44231   1.5976  74.6388 0007976 256.6396 222.5974  1.00270064 23967
COSMOS 2534 [GLONASS-M] 
1 44299U 19030A   25321.07769962  .00000049  00000+0  00000+0 0  9991
2 44299  64.3646 199.7577 0009563 282.7086 212.8930  2.13102216 50402
BEIDOU-3 IGSO-2         
1 44337U 19035A   25319.40858080 -.00000049  00000+0  00000+0 0  9994
2 44337  55.2189 160.7421 0037219 202.2043 318.2327  1.00279963 23524
